{
  "type": "FeatureCollection",
  "features": [
    {
      "type": "Feature",
      "properties": {
        "norad_id": 30515,
        "name": "FENGYUN 1C DEB",
        "group": "fengyun-1c-debris",
        "lat": 1.275836411908316,
        "lon": -140.67493105291697,
        "alt_km": 964.5287378214416,
        "timestamp": "2025-12-08T21:31:04.944674+00:00",
        "meta_object_name": "FENGYUN 1C DEB",
        "meta_object_id": "1999-025AJD",
        "meta_epoch": "2025-12-08T14:36:39.036096",
        "meta_mean_motion": 13.63770997,
        "meta_eccentricity": 0.04968454,
        "meta_inclination": 98.5091,
        "meta_ra_of_asc_node": 219.263,
        "meta_arg_of_pericenter": 85.5717,
        "meta_mean_anomaly": 309.2494,
        "meta_ephemeris_type": 0,
        "meta_classification_type": "U",
        "meta_norad_cat_id": 30515,
        "meta_element_set_no": 999,
        "meta_rev_at_epoch": 93274,
        "meta_bstar": 0.0015355637,
        "meta_mean_motion_dot": 2.794e-05,
        "meta_mean_motion_ddot": 0,
        "tle_line1": "1 30515U 99025AJD 25342.60878514  .00002794  00000+0  15356-2 0  9997",
        "tle_line2": "2 30515  98.5091 219.2630 0496845  85.5717 309.2494 13.63770997932748"
      },
      "geometry": {
        "type": "Point",
        "coordinates": [
          -140.67493105291697,
          1.275836411908316
        ]
      }
    },
    {
      "type": "Feature",
      "properties": {
        "norad_id": 30516,
        "name": "FENGYUN 1C DEB",
        "group": "fengyun-1c-debris",
        "lat": 20.320664451228087,
        "lon": -89.9186115422094,
        "alt_km": 759.3809745039007,
        "timestamp": "2025-12-08T21:31:04.944685+00:00",
        "meta_object_name": "FENGYUN 1C DEB",
        "meta_object_id": "1999-025AJE",
        "meta_epoch": "2025-12-08T06:04:06.665952",
        "meta_mean_motion": 14.41242538,
        "meta_eccentricity": 0.00087728,
        "meta_inclination": 98.8579,
        "meta_ra_of_asc_node": 86.1039,
        "meta_arg_of_pericenter": 305.1095,
        "meta_mean_anomaly": 116.1869,
        "meta_ephemeris_type": 0,
        "meta_classification_type": "U",
        "meta_norad_cat_id": 30516,
        "meta_element_set_no": 999,
        "meta_rev_at_epoch": 97650,
        "meta_bstar": 0.0027782188,
        "meta_mean_motion_dot": 8.942e-05,
        "meta_mean_motion_ddot": 0,
        "tle_line1": "1 30516U 99025AJE 25342.25285493  .00008942  00000+0  27782-2 0  9994",
        "tle_line2": "2 30516  98.8579  86.1039 0008772 305.1095 116.1869 14.41242538976500"
      },
      "geometry": {
        "type": "Point",
        "coordinates": [
          -89.9186115422094,
          20.320664451228087
        ]
      }
    },
    {
      "type": "Feature",
      "properties": {
        "norad_id": 30520,
        "name": "FENGYUN 1C DEB",
        "group": "fengyun-1c-debris",
        "lat": -1.5988129883957325,
        "lon": 155.39258730554798,
        "alt_km": 547.6338997132852,
        "timestamp": "2025-12-08T21:31:04.944695+00:00",
        "meta_object_name": "FENGYUN 1C DEB",
        "meta_object_id": "1999-025AJJ",
        "meta_epoch": "2025-12-08T10:25:13.724832",
        "meta_mean_motion": 15.13790163,
        "meta_eccentricity": 0.00705816,
        "meta_inclination": 98.7185,
        "meta_ra_of_asc_node": 154.6184,
        "meta_arg_of_pericenter": 114.4118,
        "meta_mean_anomaly": 246.4496,
        "meta_ephemeris_type": 0,
        "meta_classification_type": "U",
        "meta_norad_cat_id": 30520,
        "meta_element_set_no": 999,
        "meta_rev_at_epoch": 976,
        "meta_bstar": 0.0014430103,
        "meta_mean_motion_dot": 0.00027702,
        "meta_mean_motion_ddot": 0,
        "tle_line1": "1 30520U 99025AJJ 25342.43418663  .00027702  00000+0  14430-2 0  9997",
        "tle_line2": "2 30520  98.7185 154.6184 0070581 114.4118 246.4496 15.13790163  9763"
      },
      "geometry": {
        "type": "Point",
        "coordinates": [
          155.39258730554798,
          -1.5988129883957325
        ]
      }
    },
    {
      "type": "Feature",
      "properties": {
        "norad_id": 30521,
        "name": "FENGYUN 1C DEB",
        "group": "fengyun-1c-debris",
        "lat": -32.42134621016723,
        "lon": -67.94976138189594,
        "alt_km": 633.8923772856406,
        "timestamp": "2025-12-08T21:31:04.944705+00:00",
        "meta_object_name": "FENGYUN 1C DEB",
        "meta_object_id": "1999-025AJK",
        "meta_epoch": "2025-12-08T02:25:06.536640",
        "meta_mean_motion": 14.58191812,
        "meta_eccentricity": 0.01356066,
        "meta_inclination": 98.9887,
        "meta_ra_of_asc_node": 116.9603,
        "meta_arg_of_pericenter": 257.8469,
        "meta_mean_anomaly": 100.7509,
        "meta_ephemeris_type": 0,
        "meta_classification_type": "U",
        "meta_norad_cat_id": 30521,
        "meta_element_set_no": 999,
        "meta_rev_at_epoch": 99514,
        "meta_bstar": 0.0010563672,
        "meta_mean_motion_dot": 5.474e-05,
        "meta_mean_motion_ddot": 0,
        "tle_line1": "1 30521U 99025AJK 25342.10077010  .00005474  00000+0  10564-2 0  9995",
        "tle_line2": "2 30521  98.9887 116.9603 0135606 257.8469 100.7509 14.58191812995140"
      },
      "geometry": {
        "type": "Point",
        "coordinates": [
          -67.94976138189594,
          -32.42134621016723
        ]
      }
    },
    {
      "type": "Feature",
      "properties": {
        "norad_id": 30523,
        "name": "FENGYUN 1C DEB",
        "group": "fengyun-1c-debris",
        "lat": -4.7821282355004655,
        "lon": 140.6338395180811,
        "alt_km": 724.5016844111824,
        "timestamp": "2025-12-08T21:31:04.944715+00:00",
        "meta_object_name": "FENGYUN 1C DEB",
        "meta_object_id": "1999-025AJM",
        "meta_epoch": "2025-12-08T09:38:40.443072",
        "meta_mean_motion": 14.27922624,
        "meta_eccentricity": 0.02440508,
        "meta_inclination": 98.4656,
        "meta_ra_of_asc_node": 320.8677,
        "meta_arg_of_pericenter": 121.245,
        "meta_mean_anomaly": 39.2518,
        "meta_ephemeris_type": 0,
        "meta_classification_type": "U",
        "meta_norad_cat_id": 30523,
        "meta_element_set_no": 999,
        "meta_rev_at_epoch": 98038,
        "meta_bstar": 0.00028509033,
        "meta_mean_motion_dot": 9.24e-06,
        "meta_mean_motion_ddot": 0,
        "tle_line1": "1 30523U 99025AJM 25342.40185698  .00000924  00000+0  28509-3 0  9996",
        "tle_line2": "2 30523  98.4656 320.8677 0244050 121.2450  39.2518 14.27922624980381"
      },
      "geometry": {
        "type": "Point",
        "coordinates": [
          140.6338395180811,
          -4.7821282355004655
        ]
      }
    },
    {
      "type": "Feature",
      "properties": {
        "norad_id": 30524,
        "name": "FENGYUN 1C DEB",
        "group": "fengyun-1c-debris",
        "lat": -78.0388904574863,
        "lon": -154.2830494078171,
        "alt_km": 783.1829732485903,
        "timestamp": "2025-12-08T21:31:04.944726+00:00",
        "meta_object_name": "FENGYUN 1C DEB",
        "meta_object_id": "1999-025AJN",
        "meta_epoch": "2025-12-08T09:49:51.464352",
        "meta_mean_motion": 13.92090245,
        "meta_eccentricity": 0.0207933,
        "meta_inclination": 99.3085,
        "meta_ra_of_asc_node": 154.496,
        "meta_arg_of_pericenter": 261.8239,
        "meta_mean_anomaly": 95.929,
        "meta_ephemeris_type": 0,
        "meta_classification_type": "U",
        "meta_norad_cat_id": 30524,
        "meta_element_set_no": 999,
        "meta_rev_at_epoch": 93825,
        "meta_bstar": 0.007192921,
        "meta_mean_motion_dot": 0.00010944,
        "meta_mean_motion_ddot": 0,
        "tle_line1": "1 30524U 99025AJN 25342.40962343  .00010944  00000+0  71929-2 0  9993",
        "tle_line2": "2 30524  99.3085 154.4960 0207933 261.8239  95.9290 13.92090245938250"
      },
      "geometry": {
        "type": "Point",
        "coordinates": [
          -154.2830494078171,
          -78.0388904574863
        ]
      }
    },
    {
      "type": "Feature",
      "properties": {
        "norad_id": 30525,
        "name": "FENGYUN 1C DEB",
        "group": "fengyun-1c-debris",
        "lat": -74.23508857246154,
        "lon": 16.03628256141787,
        "alt_km": 943.3155380410271,
        "timestamp": "2025-12-08T21:31:04.944735+00:00",
        "meta_object_name": "FENGYUN 1C DEB",
        "meta_object_id": "1999-025AJP",
        "meta_epoch": "2025-12-07T15:57:14.658336",
        "meta_mean_motion": 13.58585376,
        "meta_eccentricity": 0.02940097,
        "meta_inclination": 98.6021,
        "meta_ra_of_asc_node": 227.3772,
        "meta_arg_of_pericenter": 322.7066,
        "meta_mean_anomaly": 35.398,
        "meta_ephemeris_type": 0,
        "meta_classification_type": "U",
        "meta_norad_cat_id": 30525,
        "meta_element_set_no": 999,
        "meta_rev_at_epoch": 93048,
        "meta_bstar": 0.0026285251,
        "meta_mean_motion_dot": 2.505e-05,
        "meta_mean_motion_ddot": 0,
        "tle_line1": "1 30525U 99025AJP 25341.66475299  .00002505  00000+0  26285-2 0  9999",
        "tle_line2": "2 30525  98.6021 227.3772 0294009 322.7066  35.3980 13.58585376930486"
      },
      "geometry": {
        "type": "Point",
        "coordinates": [
          16.03628256141787,
          -74.23508857246154
        ]
      }
    }
  ]
}